ONEWEB-0283             
1 49001U 21060AL  25193.68293238 -.00000019  00000+0 -82970-4 0  9995
2 49001  87.9054 296.4580 0002209 100.9774 259.1606 13.16594603194948
ONEWEB-0284             
1 49002U 21060AM  25193.98058726  .00000583  00000+0  14907-2 0  9997
2 49002  87.9071 296.3701 0002040  90.6689 269.4675 13.16590694196279
ONEWEB-0285             
1 49075U 21075A   25193.57620336 -.00000385  00000+0 -11048-2 0  9995
2 49075  87.8858  58.1925 0001786  79.6624 280.4706 13.12443657191641
ONEWEB-0286             
1 49076U 21075B   25193.32936535 -.00000039  00000+0 -14347-3 0  9992
2 49076  87.8881  58.2655 0001577  82.3259 277.8048 13.12443691189983
ONEWEB-0287             
1 49077U 21075C   25193.95978139  .00000110  00000+0  24985-3 0  9995
2 49077  87.9054  73.3894 0001434  76.2794 283.8497 13.17647761188958
ONEWEB-0288             
1 49078U 21075D   25193.91507170  .00000447  00000+0  12060-2 0  9998
2 49078  87.8855  58.1177 0001684  77.1875 282.9441 13.12445066190680
ONEWEB-0289             
1 49079U 21075E   25193.91246861  .00000083  00000+0  18153-3 0  9992
2 49079  87.9049  73.4292 0002105  67.1566 292.9788 13.17650242189525
ONEWEB-0290             
1 49080U 21075F   25193.89565868  .00000109  00000+0  24817-3 0  9995
2 49080  87.9048  73.3880 0002352  69.0887 291.0496 13.17648774188936
